[{"OBJECT_NAME":"CUTE-1.7+APD II (CO-65)","OBJECT_ID":"2008-021C","EPOCH":"2026-04-25T20:52:54.569856","MEAN_MOTION":15.0894487,"ECCENTRICITY":0.0008258,"INCLINATION":97.8257,"RA_OF_ASC_NODE":96.2312,"ARG_OF_PERICENTER":194.9719,"MEAN_ANOMALY":165.1266,"EPHEMERIS_TYPE":0,"CLASSIFICATION_TYPE":"U","NORAD_CAT_ID":32785,"ELEMENT_SET_NO":999,"REV_AT_EPOCH":97730,"BSTAR":0.00038663,"MEAN_MOTION_DOT":6.042e-5,"MEAN_MOTION_DDOT":0},{"OBJECT_NAME":"SEEDS II (CO-66)","OBJECT_ID":"2008-021J","EPOCH":"2026-04-25T11:37:43.017024","MEAN_MOTION":15.3090495,"ECCENTRICITY":0.0004924,"INCLINATION":97.7533,"RA_OF_ASC_NODE":110.9451,"ARG_OF_PERICENTER":116.41,"MEAN_ANOMALY":243.7646,"EPHEMERIS_TYPE":0,"CLASSIFICATION_TYPE":"U","NORAD_CAT_ID":32791,"ELEMENT_SET_NO":999,"REV_AT_EPOCH":97922,"BSTAR":0.0006006,"MEAN_MOTION_DOT":0.00017882,"MEAN_MOTION_DDOT":0},{"OBJECT_NAME":"YUBILEINY (RS30)","OBJECT_ID":"2008-025A","EPOCH":"2026-04-25T18:54:17.485632","MEAN_MOTION":12.43178006,"ECCENTRICITY":0.0020647,"INCLINATION":82.5072,"RA_OF_ASC_NODE":28.0297,"ARG_OF_PERICENTER":66.0676,"MEAN_ANOMALY":294.2563,"EPHEMERIS_TYPE":0,"CLASSIFICATION_TYPE":"U","NORAD_CAT_ID":32953,"ELEMENT_SET_NO":999,"REV_AT_EPOCH":81318,"BSTAR":0.00040325,"MEAN_MOTION_DOT":6.6e-7,"MEAN_MOTION_DDOT":0},{"OBJECT_NAME":"KKS-1 (KISEKI)","OBJECT_ID":"2009-002H","EPOCH":"2026-04-25T19:59:19.803840","MEAN_MOTION":14.82983921,"ECCENTRICITY":0.0009305,"INCLINATION":98.119,"RA_OF_ASC_NODE":37.4518,"ARG_OF_PERICENTER":98.1614,"MEAN_ANOMALY":262.0655,"EPHEMERIS_TYPE":0,"CLASSIFICATION_TYPE":"U","NORAD_CAT_ID":33499,"ELEMENT_SET_NO":999,"REV_AT_EPOCH":92843,"BSTAR":0.00018342,"MEAN_MOTION_DOT":1.435e-5,"MEAN_MOTION_DDOT":0},{"OBJECT_NAME":"SWISSCUBE","OBJECT_ID":"2009-051B","EPOCH":"2026-04-25T16:34:30.213408","MEAN_MOTION":14.62374931,"ECCENTRICITY":0.0007422,"INCLINATION":98.4066,"RA_OF_ASC_NODE":22.6611,"ARG_OF_PERICENTER":26.1773,"MEAN_ANOMALY":333.9801,"EPHEMERIS_TYPE":0,"CLASSIFICATION_TYPE":"U","NORAD_CAT_ID":35932,"ELEMENT_SET_NO":999,"REV_AT_EPOCH":88148,"BSTAR":0.00019044,"MEAN_MOTION_DOT":9.13e-6,"MEAN_MOTION_DDOT":0},{"OBJECT_NAME":"BEESAT-1","OBJECT_ID":"2009-051C","EPOCH":"2026-04-25T17:47:45.156768","MEAN_MOTION":14.61630477,"ECCENTRICITY":0.000616,"INCLINATION":98.3995,"RA_OF_ASC_NODE":22.4572,"ARG_OF_PERICENTER":40.8365,"MEAN_ANOMALY":319.3296,"EPHEMERIS_TYPE":0,"CLASSIFICATION_TYPE":"U","NORAD_CAT_ID":35933,"ELEMENT_SET_NO":999,"REV_AT_EPOCH":88152,"BSTAR":0.00016386,"MEAN_MOTION_DOT":7.66e-6,"MEAN_MOTION_DDOT":0},{"OBJECT_NAME":"ITUPSAT1","OBJECT_ID":"2009-051E","EPOCH":"2026-04-25T16:28:42.539808","MEAN_MOTION":14.60357466,"ECCENTRICITY":0.0008497,"INCLINATION":98.408,"RA_OF_ASC_NODE":21.6484,"ARG_OF_PERICENTER":47.9628,"MEAN_ANOMALY":312.2293,"EPHEMERIS_TYPE":0,"CLASSIFICATION_TYPE":"U","NORAD_CAT_ID":35935,"ELEMENT_SET_NO":999,"REV_AT_EPOCH":88107,"BSTAR":0.00015488,"MEAN_MOTION_DOT":7.0e-6,"MEAN_MOTION_DDOT":0},{"OBJECT_NAME":"XIWANG-1 (HOPE-1)","OBJECT_ID":"2009-072B","EPOCH":"2026-04-25T21:07:54.513984","MEAN_MOTION":13.16436688,"ECCENTRICITY":0.0007557,"INCLINATION":100.3988,"RA_OF_ASC_NODE":70.5582,"ARG_OF_PERICENTER":358.5441,"MEAN_ANOMALY":1.5648,"EPHEMERIS_TYPE":0,"CLASSIFICATION_TYPE":"U","NORAD_CAT_ID":36122,"ELEMENT_SET_NO":999,"REV_AT_EPOCH":78612,"BSTAR":-0.00074428,"MEAN_MOTION_DOT":-3.29e-6,"MEAN_MOTION_DDOT":0},{"OBJECT_NAME":"O/OREOS (USA 219)","OBJECT_ID":"2010-062C","EPOCH":"2026-04-25T14:54:06.782112","MEAN_MOTION":14.93526406,"ECCENTRICITY":0.0014274,"INCLINATION":71.9703,"RA_OF_ASC_NODE":199.3874,"ARG_OF_PERICENTER":174.5038,"MEAN_ANOMALY":185.6292,"EPHEMERIS_TYPE":0,"CLASSIFICATION_TYPE":"U","NORAD_CAT_ID":37224,"ELEMENT_SET_NO":999,"REV_AT_EPOCH":10879,"BSTAR":0.0001817,"MEAN_MOTION_DOT":1.855e-5,"MEAN_MOTION_DDOT":0},{"OBJECT_NAME":"JUGNU","OBJECT_ID":"2011-058B","EPOCH":"2026-04-25T17:24:17.591904","MEAN_MOTION":14.13760293,"ECCENTRICITY":0.0018471,"INCLINATION":19.9611,"RA_OF_ASC_NODE":267.1514,"ARG_OF_PERICENTER":217.0954,"MEAN_ANOMALY":259.1903,"EPHEMERIS_TYPE":0,"CLASSIFICATION_TYPE":"U","NORAD_CAT_ID":37839,"ELEMENT_SET_NO":999,"REV_AT_EPOCH":75159,"BSTAR":9.1407e-5,"MEAN_MOTION_DOT":4.43e-6,"MEAN_MOTION_DDOT":0},{"OBJECT_NAME":"SRMSAT","OBJECT_ID":"2011-058D","EPOCH":"2026-04-25T20:09:32.907744","MEAN_MOTION":14.11562942,"ECCENTRICITY":0.0011659,"INCLINATION":19.9735,"RA_OF_ASC_NODE":16.315,"ARG_OF_PERICENTER":348.3894,"MEAN_ANOMALY":76.5667,"EPHEMERIS_TYPE":0,"CLASSIFICATION_TYPE":"U","NORAD_CAT_ID":37841,"ELEMENT_SET_NO":999,"REV_AT_EPOCH":75041,"BSTAR":8.2284e-5,"MEAN_MOTION_DOT":4.16e-6,"MEAN_MOTION_DDOT":0},{"OBJECT_NAME":"STRAND-1","OBJECT_ID":"2013-009E","EPOCH":"2026-04-25T18:28:05.720160","MEAN_MOTION":14.37130836,"ECCENTRICITY":0.0009254,"INCLINATION":98.3915,"RA_OF_ASC_NODE":297.2968,"ARG_OF_PERICENTER":34.9138,"MEAN_ANOMALY":325.2654,"EPHEMERIS_TYPE":0,"CLASSIFICATION_TYPE":"U","NORAD_CAT_ID":39090,"ELEMENT_SET_NO":999,"REV_AT_EPOCH":68953,"BSTAR":9.9175e-5,"MEAN_MOTION_DOT":2.52e-6,"MEAN_MOTION_DDOT":0},{"OBJECT_NAME":"ZACUBE-1 (TSHEPISOSAT)","OBJECT_ID":"2013-066B","EPOCH":"2026-04-25T21:01:04.058688","MEAN_MOTION":15.007441,"ECCENTRICITY":0.0044223,"INCLINATION":97.8121,"RA_OF_ASC_NODE":77.9322,"ARG_OF_PERICENTER":67.9289,"MEAN_ANOMALY":292.6622,"EPHEMERIS_TYPE":0,"CLASSIFICATION_TYPE":"U","NORAD_CAT_ID":39417,"ELEMENT_SET_NO":999,"REV_AT_EPOCH":67288,"BSTAR":0.0004582,"MEAN_MOTION_DOT":5.869e-5,"MEAN_MOTION_DDOT":0},{"OBJECT_NAME":"GOMX-1","OBJECT_ID":"2013-066Q","EPOCH":"2026-04-25T19:37:30.734112","MEAN_MOTION":14.69258291,"ECCENTRICITY":0.012755,"INCLINATION":97.6529,"RA_OF_ASC_NODE":319.578,"ARG_OF_PERICENTER":245.5389,"MEAN_ANOMALY":113.247,"EPHEMERIS_TYPE":0,"CLASSIFICATION_TYPE":"U","NORAD_CAT_ID":39430,"ELEMENT_SET_NO":999,"REV_AT_EPOCH":66222,"BSTAR":0.00021358,"MEAN_MOTION_DOT":1.373e-5,"MEAN_MOTION_DDOT":0},{"OBJECT_NAME":"CUBEBUG-2 (LO-74)","OBJECT_ID":"2013-066AA","EPOCH":"2026-04-25T19:21:22.290336","MEAN_MOTION":14.93386841,"ECCENTRICITY":0.0057328,"INCLINATION":97.8871,"RA_OF_ASC_NODE":64.5922,"ARG_OF_PERICENTER":199.505,"MEAN_ANOMALY":160.3976,"EPHEMERIS_TYPE":0,"CLASSIFICATION_TYPE":"U","NORAD_CAT_ID":39440,"ELEMENT_SET_NO":999,"REV_AT_EPOCH":66917,"BSTAR":0.00035043,"MEAN_MOTION_DOT":3.736e-5,"MEAN_MOTION_DDOT":0},{"OBJECT_NAME":"FUNCUBE-1 (AO-73)","OBJECT_ID":"2013-066AE","EPOCH":"2026-04-25T19:24:09.918432","MEAN_MOTION":15.08732699,"ECCENTRICITY":0.0037585,"INCLINATION":97.8237,"RA_OF_ASC_NODE":86.2005,"ARG_OF_PERICENTER":24.7149,"MEAN_ANOMALY":335.5869,"EPHEMERIS_TYPE":0,"CLASSIFICATION_TYPE":"U","NORAD_CAT_ID":39444,"ELEMENT_SET_NO":999,"REV_AT_EPOCH":67176,"BSTAR":0.00068138,"MEAN_MOTION_DOT":0.00010811,"MEAN_MOTION_DDOT":0},{"OBJECT_NAME":"UWE-3","OBJECT_ID":"2013-066AG","EPOCH":"2026-04-25T19:19:01.426368","MEAN_MOTION":14.96583512,"ECCENTRICITY":0.0050421,"INCLINATION":97.8653,"RA_OF_ASC_NODE":71.5585,"ARG_OF_PERICENTER":133.2329,"MEAN_ANOMALY":227.3118,"EPHEMERIS_TYPE":0,"CLASSIFICATION_TYPE":"U","NORAD_CAT_ID":39446,"ELEMENT_SET_NO":999,"REV_AT_EPOCH":66974,"BSTAR":0.00031656,"MEAN_MOTION_DOT":3.635e-5,"MEAN_MOTION_DDOT":0}]
